[{"OBJECT_NAME":"STARLINK-34595","OBJECT_ID":"2025-144AB","EPOCH":"2026-01-30T02:36:14.378400","MEAN_MOTION":15.30214293,"ECCENTRICITY":0.00019674,"INCLINATION":53.163,"RA_OF_ASC_NODE":0.3224,"ARG_OF_PERICENTER":146.8395,"MEAN_ANOMALY":213.2729,"EPHEMERIS_TYPE":0,"CLASSIFICATION_TYPE":"U","NORAD_CAT_ID":64749,"ELEMENT_SET_NO":999,"REV_AT_EPOCH":3380,"BSTAR":0.0010702036,"MEAN_MOTION_DOT":0.00031486,"MEAN_MOTION_DDOT":0},{"OBJECT_NAME":"STARLINK-34531","OBJECT_ID":"2025-144AC","EPOCH":"2026-01-30T06:54:05.556384","MEAN_MOTION":15.30203145,"ECCENTRICITY":0.00011469,"INCLINATION":53.1606,"RA_OF_ASC_NODE":359.3181,"ARG_OF_PERICENTER":103.1571,"MEAN_ANOMALY":256.9558,"EPHEMERIS_TYPE":0,"CLASSIFICATION_TYPE":"U","NORAD_CAT_ID":64750,"ELEMENT_SET_NO":999,"REV_AT_EPOCH":3383,"BSTAR":0.001073692,"MEAN_MOTION_DOT":0.00031579,"MEAN_MOTION_DDOT":0},{"OBJECT_NAME":"STARLINK-33965","OBJECT_ID":"2025-147A","EPOCH":"2026-01-30T05:29:21.523776","MEAN_MOTION":15.30198813,"ECCENTRICITY":0.00017979,"INCLINATION":53.1593,"RA_OF_ASC_NODE":61.3739,"ARG_OF_PERICENTER":94.488,"MEAN_ANOMALY":265.6326,"EPHEMERIS_TYPE":0,"CLASSIFICATION_TYPE":"U","NORAD_CAT_ID":64755,"ELEMENT_SET_NO":999,"REV_AT_EPOCH":3290,"BSTAR":0.0012881552,"MEAN_MOTION_DOT":0.00037986,"MEAN_MOTION_DDOT":0},{"OBJECT_NAME":"STARLINK-34371","OBJECT_ID":"2025-147B","EPOCH":"2026-01-30T06:01:13.803744","MEAN_MOTION":15.30223375,"ECCENTRICITY":0.00019237,"INCLINATION":53.1608,"RA_OF_ASC_NODE":61.4998,"ARG_OF_PERICENTER":146.5663,"MEAN_ANOMALY":213.546,"EPHEMERIS_TYPE":0,"CLASSIFICATION_TYPE":"U","NORAD_CAT_ID":64756,"ELEMENT_SET_NO":999,"REV_AT_EPOCH":3281,"BSTAR":0.0014316421,"MEAN_MOTION_DOT":0.00042315,"MEAN_MOTION_DDOT":0},{"OBJECT_NAME":"STARLINK-34401","OBJECT_ID":"2025-147C","EPOCH":"2026-01-30T06:16:26.096160","MEAN_MOTION":15.30225991,"ECCENTRICITY":0.00021105,"INCLINATION":53.1596,"RA_OF_ASC_NODE":61.5744,"ARG_OF_PERICENTER":133.7417,"MEAN_ANOMALY":226.3759,"EPHEMERIS_TYPE":0,"CLASSIFICATION_TYPE":"U","NORAD_CAT_ID":64757,"ELEMENT_SET_NO":999,"REV_AT_EPOCH":3279,"BSTAR":0.0017985181,"MEAN_MOTION_DOT":0.00053335,"MEAN_MOTION_DDOT":0},{"OBJECT_NAME":"STARLINK-34593","OBJECT_ID":"2025-147D","EPOCH":"2026-01-30T05:27:48.242880","MEAN_MOTION":15.30233548,"ECCENTRICITY":0.00012148,"INCLINATION":53.1589,"RA_OF_ASC_NODE":61.3591,"ARG_OF_PERICENTER":117.4584,"MEAN_ANOMALY":242.654,"EPHEMERIS_TYPE":0,"CLASSIFICATION_TYPE":"U","NORAD_CAT_ID":64758,"ELEMENT_SET_NO":999,"REV_AT_EPOCH":3286,"BSTAR":0.00077107904,"MEAN_MOTION_DOT":0.00022571,"MEAN_MOTION_DDOT":0},{"OBJECT_NAME":"STARLINK-34598","OBJECT_ID":"2025-147E","EPOCH":"2026-01-29T08:46:52.265280","MEAN_MOTION":15.3020868,"ECCENTRICITY":0.00016585,"INCLINATION":53.1602,"RA_OF_ASC_NODE":65.2246,"ARG_OF_PERICENTER":85.3324,"MEAN_ANOMALY":274.7866,"EPHEMERIS_TYPE":0,"CLASSIFICATION_TYPE":"U","NORAD_CAT_ID":64759,"ELEMENT_SET_NO":999,"REV_AT_EPOCH":3268,"BSTAR":0.0010542904,"MEAN_MOTION_DOT":0.00031005,"MEAN_MOTION_DDOT":0},{"OBJECT_NAME":"STARLINK-34235","OBJECT_ID":"2025-147F","EPOCH":"2026-01-30T05:33:54.365472","MEAN_MOTION":15.30234671,"ECCENTRICITY":0.00013965,"INCLINATION":53.159,"RA_OF_ASC_NODE":61.3914,"ARG_OF_PERICENTER":83.3192,"MEAN_ANOMALY":276.7968,"EPHEMERIS_TYPE":0,"CLASSIFICATION_TYPE":"U","NORAD_CAT_ID":64760,"ELEMENT_SET_NO":999,"REV_AT_EPOCH":3290,"BSTAR":0.0018789668,"MEAN_MOTION_DOT":0.00055769,"MEAN_MOTION_DDOT":0},{"OBJECT_NAME":"STARLINK-34635","OBJECT_ID":"2025-147G","EPOCH":"2026-01-29T08:48:23.551200","MEAN_MOTION":15.30198935,"ECCENTRICITY":0.0001185,"INCLINATION":53.1601,"RA_OF_ASC_NODE":65.2345,"ARG_OF_PERICENTER":91.4263,"MEAN_ANOMALY":268.6873,"EPHEMERIS_TYPE":0,"CLASSIFICATION_TYPE":"U","NORAD_CAT_ID":64761,"ELEMENT_SET_NO":999,"REV_AT_EPOCH":3273,"BSTAR":0.0010934103,"MEAN_MOTION_DOT":0.00032164,"MEAN_MOTION_DDOT":0},{"OBJECT_NAME":"STARLINK-34638","OBJECT_ID":"2025-147H","EPOCH":"2026-01-30T05:41:28.902048","MEAN_MOTION":15.3019529,"ECCENTRICITY":0.00012313,"INCLINATION":53.1586,"RA_OF_ASC_NODE":61.422,"ARG_OF_PERICENTER":79.1318,"MEAN_ANOMALY":280.9821,"EPHEMERIS_TYPE":0,"CLASSIFICATION_TYPE":"U","NORAD_CAT_ID":64762,"ELEMENT_SET_NO":999,"REV_AT_EPOCH":3286,"BSTAR":0.0014982632,"MEAN_MOTION_DOT":0.00044273,"MEAN_MOTION_DDOT":0},{"OBJECT_NAME":"STARLINK-34534","OBJECT_ID":"2025-147J","EPOCH":"2026-01-30T05:52:07.118112","MEAN_MOTION":15.30203953,"ECCENTRICITY":0.00013556,"INCLINATION":53.1589,"RA_OF_ASC_NODE":61.4667,"ARG_OF_PERICENTER":99.2858,"MEAN_ANOMALY":260.8296,"EPHEMERIS_TYPE":0,"CLASSIFICATION_TYPE":"U","NORAD_CAT_ID":64763,"ELEMENT_SET_NO":999,"REV_AT_EPOCH":3286,"BSTAR":0.0017133231,"MEAN_MOTION_DOT":0.00050738,"MEAN_MOTION_DDOT":0},{"OBJECT_NAME":"STARLINK-34261","OBJECT_ID":"2025-147K","EPOCH":"2026-01-30T05:36:54.481824","MEAN_MOTION":15.30227721,"ECCENTRICITY":0.00021069,"INCLINATION":53.1586,"RA_OF_ASC_NODE":61.3995,"ARG_OF_PERICENTER":131.5808,"MEAN_ANOMALY":228.5373,"EPHEMERIS_TYPE":0,"CLASSIFICATION_TYPE":"U","NORAD_CAT_ID":64764,"ELEMENT_SET_NO":999,"REV_AT_EPOCH":3290,"BSTAR":0.0011317861,"MEAN_MOTION_DOT":0.00033341,"MEAN_MOTION_DDOT":0},{"OBJECT_NAME":"STARLINK-34566","OBJECT_ID":"2025-147L","EPOCH":"2026-01-30T05:18:41.119200","MEAN_MOTION":15.30205438,"ECCENTRICITY":0.00012885,"INCLINATION":53.1602,"RA_OF_ASC_NODE":61.3193,"ARG_OF_PERICENTER":92.0747,"MEAN_ANOMALY":268.0401,"EPHEMERIS_TYPE":0,"CLASSIFICATION_TYPE":"U","NORAD_CAT_ID":64765,"ELEMENT_SET_NO":999,"REV_AT_EPOCH":3286,"BSTAR":0.0011568979,"MEAN_MOTION_DOT":0.00034068,"MEAN_MOTION_DDOT":0},{"OBJECT_NAME":"STARLINK-34645","OBJECT_ID":"2025-147M","EPOCH":"2026-01-30T06:19:28.652448","MEAN_MOTION":15.30216232,"ECCENTRICITY":0.00015738,"INCLINATION":53.1598,"RA_OF_ASC_NODE":61.5845,"ARG_OF_PERICENTER":85.1135,"MEAN_ANOMALY":275.0045,"EPHEMERIS_TYPE":0,"CLASSIFICATION_TYPE":"U","NORAD_CAT_ID":64766,"ELEMENT_SET_NO":999,"REV_AT_EPOCH":3286,"BSTAR":0.0010514985,"MEAN_MOTION_DOT":0.00030929,"MEAN_MOTION_DDOT":0},{"OBJECT_NAME":"STARLINK-34639","OBJECT_ID":"2025-147N","EPOCH":"2026-01-30T05:17:10.029408","MEAN_MOTION":15.30209014,"ECCENTRICITY":0.00012911,"INCLINATION":53.1604,"RA_OF_ASC_NODE":61.3112,"ARG_OF_PERICENTER":77.6586,"MEAN_ANOMALY":282.4559,"EPHEMERIS_TYPE":0,"CLASSIFICATION_TYPE":"U","NORAD_CAT_ID":64767,"ELEMENT_SET_NO":999,"REV_AT_EPOCH":3281,"BSTAR":0.0012006761,"MEAN_MOTION_DOT":0.00035381,"MEAN_MOTION_DDOT":0},{"OBJECT_NAME":"STARLINK-34609","OBJECT_ID":"2025-147P","EPOCH":"2026-01-30T05:30:58.237344","MEAN_MOTION":15.30207434,"ECCENTRICITY":8.824e-5,"INCLINATION":53.1607,"RA_OF_ASC_NODE":51.4398,"ARG_OF_PERICENTER":73.602,"MEAN_ANOMALY":286.5077,"EPHEMERIS_TYPE":0,"CLASSIFICATION_TYPE":"U","NORAD_CAT_ID":64768,"ELEMENT_SET_NO":999,"REV_AT_EPOCH":3300,"BSTAR":0.0012129217,"MEAN_MOTION_DOT":0.00035745,"MEAN_MOTION_DDOT":0},{"OBJECT_NAME":"STARLINK-34246","OBJECT_ID":"2025-147Q","EPOCH":"2026-01-30T05:20:12.185664","MEAN_MOTION":15.30230529,"ECCENTRICITY":0.00015927,"INCLINATION":53.16,"RA_OF_ASC_NODE":61.3291,"ARG_OF_PERICENTER":129.9926,"MEAN_ANOMALY":230.1214,"EPHEMERIS_TYPE":0,"CLASSIFICATION_TYPE":"U","NORAD_CAT_ID":64769,"ELEMENT_SET_NO":999,"REV_AT_EPOCH":3286,"BSTAR":0.0017863353,"MEAN_MOTION_DOT":0.00052975,"MEAN_MOTION_DDOT":0},{"OBJECT_NAME":"STARLINK-34618","OBJECT_ID":"2025-147R","EPOCH":"2026-01-30T05:24:45.983808","MEAN_MOTION":15.30229495,"ECCENTRICITY":0.00010453,"INCLINATION":53.1598,"RA_OF_ASC_NODE":61.3489,"ARG_OF_PERICENTER":59.9613,"MEAN_ANOMALY":300.1491,"EPHEMERIS_TYPE":0,"CLASSIFICATION_TYPE":"U","NORAD_CAT_ID":64770,"ELEMENT_SET_NO":999,"REV_AT_EPOCH":3279,"BSTAR":0.0017239746,"MEAN_MOTION_DOT":0.00051098,"MEAN_MOTION_DDOT":0},{"OBJECT_NAME":"STARLINK-34541","OBJECT_ID":"2025-147S","EPOCH":"2026-01-29T08:33:11.676096","MEAN_MOTION":15.30217104,"ECCENTRICITY":0.00014431,"INCLINATION":53.1608,"RA_OF_ASC_NODE":65.1632,"ARG_OF_PERICENTER":114.5403,"MEAN_ANOMALY":245.5749,"EPHEMERIS_TYPE":0,"CLASSIFICATION_TYPE":"U","NORAD_CAT_ID":64771,"ELEMENT_SET_NO":999,"REV_AT_EPOCH":3266,"BSTAR":0.0016886699,"MEAN_MOTION_DOT":0.00050018,"MEAN_MOTION_DDOT":0},{"OBJECT_NAME":"STARLINK-34652","OBJECT_ID":"2025-147T","EPOCH":"2026-01-30T01:46:16.155840","MEAN_MOTION":15.30213225,"ECCENTRICITY":0.0001841,"INCLINATION":53.1604,"RA_OF_ASC_NODE":61.8207,"ARG_OF_PERICENTER":88.4629,"MEAN_ANOMALY":271.6583,"EPHEMERIS_TYPE":0,"CLASSIFICATION_TYPE":"U","NORAD_CAT_ID":64772,"ELEMENT_SET_NO":999,"REV_AT_EPOCH":3284,"BSTAR":0.0019394571,"MEAN_MOTION_DOT":0.00057552,"MEAN_MOTION_DDOT":0},{"OBJECT_NAME":"STARLINK-34612","OBJECT_ID":"2025-147U","EPOCH":"2026-01-29T08:39:16.535520","MEAN_MOTION":15.30215748,"ECCENTRICITY":0.00015164,"INCLINATION":53.1611,"RA_OF_ASC_NODE":65.1935,"ARG_OF_PERICENTER":56.8781,"MEAN_ANOMALY":303.2365,"EPHEMERIS_TYPE":0,"CLASSIFICATION_TYPE":"U","NORAD_CAT_ID":64773,"ELEMENT_SET_NO":999,"REV_AT_EPOCH":3273,"BSTAR":0.0015269796,"MEAN_MOTION_DOT":0.00045163,"MEAN_MOTION_DDOT":0},{"OBJECT_NAME":"STARLINK-34621","OBJECT_ID":"2025-147V","EPOCH":"2026-01-30T06:10:21.241056","MEAN_MOTION":15.30207956,"ECCENTRICITY":0.00019563,"INCLINATION":53.1596,"RA_OF_ASC_NODE":61.5429,"ARG_OF_PERICENTER":69.4637,"MEAN_ANOMALY":290.6574,"EPHEMERIS_TYPE":0,"CLASSIFICATION_TYPE":"U","NORAD_CAT_ID":64774,"ELEMENT_SET_NO":999,"REV_AT_EPOCH":3279,"BSTAR":0.001107882,"MEAN_MOTION_DOT":0.00032606,"MEAN_MOTION_DDOT":0},{"OBJECT_NAME":"STARLINK-34657","OBJECT_ID":"2025-147W","EPOCH":"2026-01-30T05:56:40.302816","MEAN_MOTION":15.30177277,"ECCENTRICITY":0.00013392,"INCLINATION":53.1593,"RA_OF_ASC_NODE":61.4825,"ARG_OF_PERICENTER":92.6739,"MEAN_ANOMALY":267.4415,"EPHEMERIS_TYPE":0,"CLASSIFICATION_TYPE":"U","NORAD_CAT_ID":64775,"ELEMENT_SET_NO":999,"REV_AT_EPOCH":3286,"BSTAR":0.0016958594,"MEAN_MOTION_DOT":0.00050172,"MEAN_MOTION_DDOT":0}]
